NORAD_CAT_ID,OBJECT_NAME,OBJECT_TYPE,EPOCH,MEAN_MOTION,ECCENTRICITY,INCLINATION,RA_OF_ASC_NODE,ARG_OF_PERICENTER,MEAN_ANOMALY,BSTAR,MEAN_MOTION_DOT,MEAN_MOTION_DDOT,TLE_LINE0,TLE_LINE1,TLE_LINE2,SEMIMAJOR_AXIS,PERIOD,APOGEE,PERIGEE,DECAYED
51862.0,STARLINK-3508,PAYLOAD,2022-08-07 22:00:00,15.08872946,0.0001883,53.2178,128.9084,66.4402,59.0163,-0.0034162,-0.00054297,0.0,0 STARLINK-3508,1 51862U 22022L   22219.91667824 -.00054297  00000-0 -34162-2 0  9996,2 51862  53.2178 128.9084 0001883  66.4402  59.0163 15.08872946  1302,6917.78,95.435,540.947,538.342,0.0
51862.0,STARLINK-3508,PAYLOAD,2022-08-08 06:00:00,15.08827337,0.0001855,53.2178,127.4129,60.0564,77.0213,0.001817,0.00028738,0.0,0 STARLINK-3508,1 51862U 22022L   22220.25001157  .00028738  00000-0  18170-2 0  9996,2 51862  53.2178 127.4129 0001855  60.0564  77.0213 15.08827337 25489,6917.919,95.438,541.067,538.501,0.0
51862.0,STARLINK-3508,PAYLOAD,2022-08-08 14:00:01,15.08827798,0.0001703,53.2182,125.9149,67.5749,81.1735,0.0031666999999999,0.00050454,0.0,0 STARLINK-3508,1 51862U 22022L   22220.58335648  .00050454  00000-0  31667-2 0  9993,2 51862  53.2182 125.9149 0001703  67.5749  81.1735 15.08827798  1309,6917.918000000002,95.438,540.961,538.605,0.0
51862.0,STARLINK-3508,PAYLOAD,2022-08-08 22:00:00,15.08882049,0.0001740999999999,53.2185,124.4197,65.5495,94.7347,-0.0040059,-0.00063553,0.0,0 STARLINK-3508,1 51862U 22022L   22220.91667824 -.00063553  00000-0 -40059-2 0  9995,2 51862  53.2185 124.4197 0001741  65.5495  94.7347 15.08882049  1306,6917.752,95.435,540.821,538.4119999999998,0.0
51862.0,STARLINK-3508,PAYLOAD,2022-08-09 06:00:00,15.08848406,0.0001681,53.2183,122.924,58.2939,113.603,-0.0022983,-0.00036688,0.0,0 STARLINK-3508,1 51862U 22022L   22221.25001157 -.00036688  00000-0 -22983-2 0  9999,2 51862  53.2183 122.9240 0001681  58.2939 113.6030 15.08848406 25632,6917.855,95.437,540.883,538.557,0.0
51862.0,STARLINK-3508,PAYLOAD,2022-08-09 14:00:01,15.0878425,0.0001424,53.2186,121.4261,64.4866,119.0081,0.0019324,0.00030553,0.0,0 STARLINK-3508,1 51862U 22022L   22221.58334491  .00030553  00000-0  19324-2 0  9993,2 51862  53.2186 121.4261 0001424  64.4866 119.0081 15.08784250  1305,6918.051,95.441,540.901,538.931,0.0
51862.0,STARLINK-3508,PAYLOAD,2022-08-09 22:00:00,15.08812318,0.0001512,53.2188,119.9313,61.8398,133.1918,-0.0011299,-0.00018212,0.0,0 STARLINK-3508,1 51862U 22022L   22221.91667824 -.00018212  00000-0 -11299-2 0  9992,2 51862  53.2188 119.9313 0001512  61.8398 133.1918 15.08812318  1309,6917.965,95.439,540.876,538.784,0.0
51862.0,STARLINK-3508,PAYLOAD,2022-08-10 06:00:00,15.08809843,0.0001553,53.2184,118.4355,57.3911,149.1962,0.0010172,0.00015924,0.0,0 STARLINK-3508,1 51862U 22022L   22222.25001157  .00015924  00000-0  10172-2 0  9995,2 51862  53.2184 118.4355 0001553  57.3911 149.1962 15.08809843 25784,6917.973000000001,95.439,540.9119999999998,538.763,0.0
51862.0,STARLINK-3508,PAYLOAD,2022-08-10 14:00:01,15.08797364,0.0001416,53.2184,116.9378,66.4709,151.6878,0.0031003,0.00049341,0.0,0 STARLINK-3508,1 51862U 22022L   22222.58334491  .00049341  00000-0  31003-2 0  9997,2 51862  53.2184 116.9378 0001416  66.4709 151.6878 15.08797364  1306,6918.011,95.44,540.855,538.896,0.0
51862.0,STARLINK-3508,PAYLOAD,2022-08-10 22:00:00,15.08834198,0.0001535,53.2187,115.4438,62.7276,166.9912,-0.0011086,-0.00017885,0.0,0 STARLINK-3508,1 51862U 22022L   22222.91667824 -.00017885  00000-0 -11086-2 0  9992,2 51862  53.2187 115.4438 0001535  62.7276 166.9912 15.08834198  1305,6917.898,95.438,540.825,538.701,0.0
51862.0,STARLINK-3508,PAYLOAD,2022-08-11 06:00:02,15.08834122,0.0001554999999999,53.218,113.947,59.9542,181.4041,7.463600000000001e-05,9e-06,0.0,0 STARLINK-3508,1 51862U 22022L   22223.25002315  .00000900  00000-0  74636-4 0  9998,2 51862  53.2180 113.9470 0001555  59.9542 181.4041 15.08834122 25930,6917.898,95.438,540.839,538.688,0.0
51862.0,STARLINK-3508,PAYLOAD,2022-08-11 14:00:01,15.08815103,0.000146,53.2179,112.4492,69.105,183.786,0.0030149,0.00047988,0.0,0 STARLINK-3508,1 51862U 22022L   22223.58334491  .00047988  00000-0  30149-2 0  9993,2 51862  53.2179 112.4492 0001460  69.1050 183.7860 15.08815103  1305,6917.956,95.439,540.832,538.811,0.0
51862.0,STARLINK-3508,PAYLOAD,2022-08-12 14:00:01,15.08855535,0.0001547,53.2173,107.9601,71.1578,216.5501,0.00067929,0.00010544,0.0,0 STARLINK-3508,1 51862U 22022L   22224.58334491  .00010544  00000-0  67929-3 0  9999,2 51862  53.2173 107.9601 0001547  71.1578 216.5501 15.08855535 26132,6917.833000000001,95.437,540.768,538.628,0.0
51862.0,STARLINK-3508,PAYLOAD,2022-08-12 22:00:01,15.08848407,0.0001717,53.2173,106.4652,66.4488,232.9367,-0.00060967,-9.98e-05,0.0,0 STARLINK-3508,1 51862U 22022L   22224.91668981 -.00009980  00000-0 -60967-3 0  9999,2 51862  53.2173 106.4652 0001717  66.4488 232.9367 15.08848407  1302,6917.855,95.437,540.9069999999998,538.5319999999998,0.0
51862.0,STARLINK-3508,PAYLOAD,2022-08-13 06:00:02,15.08865173,0.000165,53.2171,104.9687,62.8307,248.1511,-0.0034321999999999,-0.00054536,0.0,0 STARLINK-3508,1 51862U 22022L   22225.25002315 -.00054536  00000-0 -34322-2 0  9992,2 51862  53.2171 104.9687 0001650  62.8307 248.1511 15.08865173 26235,6917.803000000001,95.436,540.81,538.5269999999998,0.0
51862.0,STARLINK-3508,PAYLOAD,2022-08-13 14:00:01,15.08808764,0.0001581,53.2171,103.4707,70.6926,251.8312,0.0031715,0.00050505,0.0,0 STARLINK-3508,1 51862U 22022L   22225.58334491  .00050505  00000-0  31715-2 0  9994,2 51862  53.2171 103.4707 0001581  70.6926 251.8312 15.08808764  1303,6917.976,95.44,540.935,538.747,0.0
51862.0,STARLINK-3508,PAYLOAD,2022-08-13 22:00:00,15.08842975,0.0001695,53.2171,101.976,64.9011,269.2029,-0.00062458,-0.00010215,0.0,0 STARLINK-3508,1 51862U 22022L   22225.91667824 -.00010215  00000-0 -62458-3 0  9995,2 51862  53.2171 101.9760 0001695  64.9011 269.2029 15.08842975  1302,6917.871,95.437,540.909,538.564,0.0
51862.0,STARLINK-3508,PAYLOAD,2022-08-14 14:00:01,15.08806348,0.0001535,53.2173,98.9813,69.0716,288.228,0.003111,0.00049526,0.0,0 STARLINK-3508,1 51862U 22022L   22226.58334491  .00049526  00000-0  31110-2 0  9995,2 51862  53.2173  98.9813 0001535  69.0716 288.2280 15.08806348  1303,6917.983,95.44,540.91,538.786,0.0
51862.0,STARLINK-3508,PAYLOAD,2022-08-14 22:00:00,15.08838053,0.0001678,53.2173,97.4866,62.6949,306.1808,-0.00055156,-9.055e-05,0.0,0 STARLINK-3508,1 51862U 22022L   22226.91667824 -.00009055  00000-0 -55156-3 0  9993,2 51862  53.2173  97.4866 0001678  62.6949 306.1808 15.08838053  1304,6917.886,95.438,540.9119999999998,538.591,0.0
51862.0,STARLINK-3508,PAYLOAD,2022-08-15 00:00:00,15.08824112,0.0001699999999999,53.2175,97.1127,61.6271,40.1488,0.0013970999999999,0.00022007,0.0,0 STARLINK-3508,1 51862U 22022L   22227.00001157  .00022007  00000-0  13971-2 0  9993,2 51862  53.2175  97.1127 0001700  61.6271  40.1488 15.08824112 26505,6917.929,95.439,540.97,538.618,0.0
51862.0,STARLINK-3508,PAYLOAD,2022-08-15 14:00:01,15.08841177,0.000165,53.2177,94.4919,69.8688,322.1932,-0.00018116,-3.17e-05,0.0,0 STARLINK-3508,1 51862U 22022L   22227.58334491 -.00003170  00000-0 -18116-3 0  9995,2 51862  53.2177  94.4919 0001650  69.8688 322.1932 15.08841177  1300,6917.877,95.437,540.883,538.6,0.0
51862.0,STARLINK-3508,PAYLOAD,2022-08-15 22:00:00,15.0882838,0.000184,53.2178,92.9972,64.9757,338.6845,-0.00053797,-8.837e-05,0.0,0 STARLINK-3508,1 51862U 22022L   22227.91667824 -.00008837  00000-0 -53797-3 0  9990,2 51862  53.2178  92.9972 0001840  64.9757 338.6845 15.08828380  1303,6917.916,95.438,541.054,538.508,0.0
51862.0,STARLINK-3508,PAYLOAD,2022-08-16 00:00:00,15.08812413,0.0001838,53.218,92.6234,63.6519,72.9072,0.0017703,0.00027977,0.0,0 STARLINK-3508,1 51862U 22022L   22228.00001157  .00027977  00000-0  17703-2 0  9992,2 51862  53.2180  92.6234 0001838  63.6519  72.9072 15.08812413 26658,6917.965,95.439,541.101,538.558,0.0
51862.0,STARLINK-3508,PAYLOAD,2022-08-16 14:00:01,15.08827546,0.000173,53.2181,90.0027,72.2629,354.5677,0.0023685,0.00037595,0.0,0 STARLINK-3508,1 51862U 22022L   22228.58334491  .00037595  00000-0  23685-2 0  9998,2 51862  53.2181  90.0027 0001730  72.2629 354.5677 15.08827546  1308,6917.918000000002,95.438,540.98,538.587,0.0
51862.0,STARLINK-3508,PAYLOAD,2022-08-16 22:00:00,15.0885108,0.0001810999999999,53.2181,88.5081,65.6952,12.7288,-0.0012554999999999,-0.0002021999999999,0.0,0 STARLINK-3508,1 51862U 22022L   22228.91667824 -.00020220  00000-0 -12555-2 0  9997,2 51862  53.2181  88.5081 0001811  65.6952  12.7288 15.08851080 26796,6917.847,95.437,540.964,538.4590000000002,0.0
51862.0,STARLINK-3508,PAYLOAD,2022-08-17 16:00:00,15.0884133,0.000162,53.2185,85.1401,72.4878,122.0161,-0.00018581,-3.244e-05,0.0,0 STARLINK-3508,1 51862U 22022L   22229.66667824 -.00003244  00000-0 -18581-3 0  9993,2 51862  53.2185  85.1401 0001620  72.4878 122.0161 15.08841330 26905,6917.876,95.437,540.862,538.621,0.0
51862.0,STARLINK-3508,PAYLOAD,2022-08-18 14:00:01,15.08852221,0.000159,53.2183,81.0248,74.9906,61.4111,0.0014892999999999,0.00023502,0.0,0 STARLINK-3508,1 51862U 22022L   22230.58334491  .00023502  00000-0  14893-2 0  9995,2 51862  53.2183  81.0248 0001590  74.9906  61.4111 15.08852221  1301,6917.843000000003,95.437,540.808,538.6080000000002,0.0
51862.0,STARLINK-3508,PAYLOAD,2022-08-18 22:00:00,15.08860845,0.0001610999999999,53.2181,79.5303,66.2798,81.7439,-0.0014336,-0.00023044,0.0,0 STARLINK-3508,1 51862U 22022L   22230.91667824 -.00023044  00000-0 -14336-2 0  9996,2 51862  53.2181  79.5303 0001611  66.2798  81.7439 15.08860845  1309,6917.816999999999,95.436,540.7959999999998,538.567,0.0
51862.0,STARLINK-3508,PAYLOAD,2022-08-19 14:00:01,15.08887592,0.0001458,53.2179,76.5367,75.5802,95.6463,-0.011023,-0.00171788,0.0,0 STARLINK-3508,1 51862U 22022L   22231.58334491 -.00171788  00000-0 -11023-1 0  9999,2 51862  53.2179  76.5367 0001458  75.5802  95.6463 15.08887592  1300,6917.735,95.435,540.609,538.591,0.0
